[{"OBJECT_NAME":"STARLINK-32566","OBJECT_ID":"2024-209V","EPOCH":"2026-03-09T12:30:43.019136","MEAN_MOTION":15.30183721,"ECCENTRICITY":0.00012706,"INCLINATION":53.1604,"RA_OF_ASC_NODE":143.0063,"ARG_OF_PERICENTER":77.4445,"MEAN_ANOMALY":282.6698,"EPHEMERIS_TYPE":0,"CLASSIFICATION_TYPE":"U","NORAD_CAT_ID":61958,"ELEMENT_SET_NO":999,"REV_AT_EPOCH":7489,"BSTAR":0.00079376076,"MEAN_MOTION_DOT":0.00023211,"MEAN_MOTION_DDOT":0},{"OBJECT_NAME":"CZ-6A DEB","OBJECT_ID":"2022-151DE","EPOCH":"2026-03-09T09:45:43.657920","MEAN_MOTION":15.34292219,"ECCENTRICITY":0.00393756,"INCLINATION":99.0022,"RA_OF_ASC_NODE":218.5596,"ARG_OF_PERICENTER":192.6197,"MEAN_ANOMALY":167.4059,"EPHEMERIS_TYPE":0,"CLASSIFICATION_TYPE":"U","NORAD_CAT_ID":54359,"ELEMENT_SET_NO":999,"REV_AT_EPOCH":10560,"BSTAR":0.0065240017,"MEAN_MOTION_DOT":0.00228186,"MEAN_MOTION_DDOT":0}]
